{"type": "FeatureCollection", "features": [ {"type": "Feature", "properties": {"norad_id": 66386, "name": "STARLINK-35651", "group": "last-30-days", "lat": -28.65806781330588, "lon": 133.48208601588885, "alt_km": 451.44695973927264, "timestamp": "2025-12-07T11:27:48.738941+00:00", "meta": {"OBJECT_NAME": "STARLINK-35651", "OBJECT_ID": "2025-257G", "EPOCH": "2025-12-07T00:00:02.000160", "MEAN_MOTION": 15.39585031, "ECCENTRICITY": 0.00012366, "INCLINATION": 53.1607, "RA_OF_ASC_NODE": 291.545, "ARG_OF_PERICENTER": 94.8784, "MEAN_ANOMALY": 353.1033, "EPHEMERIS_TYPE": 0, "CLASSIFICATION_TYPE": "U", "NORAD_CAT_ID": 66386, "ELEMENT_SET_NO": 999, "REV_AT_EPOCH": 557, "BSTAR": 0.00058010238, "MEAN_MOTION_DOT": 0.00022847, "MEAN_MOTION_DDOT": 0}, "tle": {"line1": "1 66386U 25257G   25341.00002315  .00022847  00000+0  58010-3 0  9995", "line2": "2 66386  53.1607 291.5450 0001236  94.8784 353.1033 15.39585031  5576"}}, "geometry": {"type": "Point", "coordinates": [133.48208601588885, -28.65806781330588]}}, {"type": "Feature", "properties": {"norad_id": 66387, "name": "STARLINK-35661", "group": "last-30-days", "lat": -29.980485036243607, "lon": 134.91660404326316, "alt_km": 451.7686147034201, "timestamp": "2025-12-07T11:27:48.738952+00:00", "meta": {"OBJECT_NAME": "STARLINK-35661", "OBJECT_ID": "2025-257H", "EPOCH": "2025-12-07T00:00:02.000160", "MEAN_MOTION": 15.39584811, "ECCENTRICITY": 0.00014906, "INCLINATION": 53.1608, "RA_OF_ASC_NODE": 291.5416, "ARG_OF_PERICENTER": 86.736, "MEAN_ANOMALY": 3.07, "EPHEMERIS_TYPE": 0, "CLASSIFICATION_TYPE": "U", "NORAD_CAT_ID": 66387, "ELEMENT_SET_NO": 999, "REV_AT_EPOCH": 557, "BSTAR": 0.00056171355, "MEAN_MOTION_DOT": 0.00022108, "MEAN_MOTION_DDOT": 0}, "tle": {"line1": "1 66387U 25257H   25341.00002315  .00022108  00000+0  56171-3 0  9992", "line2": "2 66387  53.1608 291.5416 0001490  86.7360   3.0700 15.39584811  5579"}}, "geometry": {"type": "Point", "coordinates": [134.91660404326316, -29.980485036243607]}}, {"type": "Feature", "properties": {"norad_id": 66388, "name": "STARLINK-35647", "group": "last-30-days", "lat": -45.2287713482965, "lon": 158.33074439148677, "alt_km": 452.70610452777237, "timestamp": "2025-12-07T11:27:48.738965+00:00", "meta": {"OBJECT_NAME": "STARLINK-35647", "OBJECT_ID": "2025-257J", "EPOCH": "2025-12-07T00:00:02.000160", "MEAN_MOTION": 15.3958752, "ECCENTRICITY": 0.00014117, "INCLINATION": 53.1603, "RA_OF_ASC_NODE": 291.4936, "ARG_OF_PERICENTER": 89.7205, "MEAN_ANOMALY": 24.0056, "EPHEMERIS_TYPE": 0, "CLASSIFICATION_TYPE": "U", "NORAD_CAT_ID": 66388, "ELEMENT_SET_NO": 999, "REV_AT_EPOCH": 557, "BSTAR": 0.00051219879, "MEAN_MOTION_DOT": 0.0002012, "MEAN_MOTION_DDOT": 0}, "tle": {"line1": "1 66388U 25257J   25341.00002315  .00020120  00000+0  51220-3 0  9995", "line2": "2 66388  53.1603 291.4936 0001411  89.7205  24.0056 15.39587520  5572"}}, "geometry": {"type": "Point", "coordinates": [158.33074439148677, -45.2287713482965]}}, {"type": "Feature", "properties": {"norad_id": 66389, "name": "STARLINK-35694", "group": "last-30-days", "lat": -53.14005283644905, "lon": -160.69947704153964, "alt_km": 452.9254906426613, "timestamp": "2025-12-07T11:27:48.738976+00:00", "meta": {"OBJECT_NAME": "STARLINK-35694", "OBJECT_ID": "2025-257K", "EPOCH": "2025-12-07T00:00:02.000160", "MEAN_MOTION": 15.39594995, "ECCENTRICITY": 0.00013509, "INCLINATION": 53.1596, "RA_OF_ASC_NODE": 291.4376, "ARG_OF_PERICENTER": 110.3988, "MEAN_ANOMALY": 30.8997, "EPHEMERIS_TYPE": 0, "CLASSIFICATION_TYPE": "U", "NORAD_CAT_ID": 66389, "ELEMENT_SET_NO": 999, "REV_AT_EPOCH": 557, "BSTAR": 0.00055909782, "MEAN_MOTION_DOT": 0.0002201, "MEAN_MOTION_DDOT": 0}, "tle": {"line1": "1 66389U 25257K   25341.00002315  .00022010  00000+0  55910-3 0  9996", "line2": "2 66389  53.1596 291.4376 0001350 110.3988  30.8997 15.39594995  5576"}}, "geometry": {"type": "Point", "coordinates": [-160.69947704153964, -53.14005283644905]}}, {"type": "Feature", "properties": {"norad_id": 66390, "name": "STARLINK-35665", "group": "last-30-days", "lat": 37.994980268550506, "lon": -35.248397231320894, "alt_km": 412.3252162301951, "timestamp": "2025-12-07T11:27:48.738987+00:00", "meta": {"OBJECT_NAME": "STARLINK-35665", "OBJECT_ID": "2025-257L", "EPOCH": "2025-12-06T04:17:12.780096", "MEAN_MOTION": 15.49341653, "ECCENTRICITY": 0.00011183, "INCLINATION": 53.1591, "RA_OF_ASC_NODE": 295.1167, "ARG_OF_PERICENTER": 82.6759, "MEAN_ANOMALY": 277.4377, "EPHEMERIS_TYPE": 0, "CLASSIFICATION_TYPE": "U", "NORAD_CAT_ID": 66390, "ELEMENT_SET_NO": 999, "REV_AT_EPOCH": 546, "BSTAR": 0.0018780257, "MEAN_MOTION_DOT": 0.00105543, "MEAN_MOTION_DDOT": 0}, "tle": {"line1": "1 66390U 25257L   25340.17862014  .00105543  00000+0  18780-2 0  9991", "line2": "2 66390  53.1591 295.1167 0001118  82.6759 277.4377 15.49341653  5462"}}, "geometry": {"type": "Point", "coordinates": [-35.248397231320894, 37.994980268550506]}}, {"type": "Feature", "properties": {"norad_id": 66391, "name": "STARLINK-35656", "group": "last-30-days", "lat": -51.28461532943907, "lon": -140.12726065218013, "alt_km": 444.3837115534043, "timestamp": "2025-12-07T11:27:48.739000+00:00", "meta": {"OBJECT_NAME": "STARLINK-35656", "OBJECT_ID": "2025-257M", "EPOCH": "2025-12-05T03:46:18.556608", "MEAN_MOTION": 15.40317588, "ECCENTRICITY": 9.833e-05, "INCLINATION": 53.1603, "RA_OF_ASC_NODE": 300.1096, "ARG_OF_PERICENTER": 171.4639, "MEAN_ANOMALY": 188.6383, "EPHEMERIS_TYPE": 0, "CLASSIFICATION_TYPE": "U", "NORAD_CAT_ID": 66391, "ELEMENT_SET_NO": 999, "REV_AT_EPOCH": 530, "BSTAR": 0.0098522303, "MEAN_MOTION_DOT": 0.00426205, "MEAN_MOTION_DDOT": 0}, "tle": {"line1": "1 66391U 25257M   25339.15715922  .00426205  00000+0  98522-2 0  9996", "line2": "2 66391  53.1603 300.1096 0000983 171.4639 188.6383 15.40317588  5302"}}, "geometry": {"type": "Point", "coordinates": [-140.12726065218013, -51.28461532943907]}}, {"type": "Feature", "properties": {"norad_id": 66392, "name": "STARLINK-35671", "group": "last-30-days", "lat": -46.171561596270685, "lon": 160.59120123340733, "alt_km": 452.88588288642495, "timestamp": "2025-12-07T11:27:48.739011+00:00", "meta": {"OBJECT_NAME": "STARLINK-35671", "OBJECT_ID": "2025-257N", "EPOCH": "2025-12-07T00:00:02.000160", "MEAN_MOTION": 15.39582198, "ECCENTRICITY": 0.00017703, "INCLINATION": 53.1604, "RA_OF_ASC_NODE": 291.4892, "ARG_OF_PERICENTER": 99.119, "MEAN_ANOMALY": 16.457, "EPHEMERIS_TYPE": 0, "CLASSIFICATION_TYPE": "U", "NORAD_CAT_ID": 66392, "ELEMENT_SET_NO": 999, "REV_AT_EPOCH": 557, "BSTAR": 0.00049502602, "MEAN_MOTION_DOT": 0.00019427, "MEAN_MOTION_DDOT": 0}, "tle": {"line1": "1 66392U 25257N   25341.00002315  .00019427  00000+0  49503-3 0  9999", "line2": "2 66392  53.1604 291.4892 0001770  99.1190  16.4570 15.39582198  5577"}}, "geometry": {"type": "Point", "coordinates": [160.59120123340733, -46.171561596270685]}}, {"type": "Feature", "properties": {"norad_id": 66393, "name": "STARLINK-35652", "group": "last-30-days", "lat": -47.003054780304325, "lon": -124.38378079508949, "alt_km": 453.01440963777895, "timestamp": "2025-12-07T11:27:48.739023+00:00", "meta": {"OBJECT_NAME": "STARLINK-35652", "OBJECT_ID": "2025-257P", "EPOCH": "2025-12-07T00:00:02.000160", "MEAN_MOTION": 15.3959421, "ECCENTRICITY": 0.00016887, "INCLINATION": 53.1588, "RA_OF_ASC_NODE": 291.3902, "ARG_OF_PERICENTER": 100.1427, "MEAN_ANOMALY": 65.0577, "EPHEMERIS_TYPE": 0, "CLASSIFICATION_TYPE": "U", "NORAD_CAT_ID": 66393, "ELEMENT_SET_NO": 999, "REV_AT_EPOCH": 557, "BSTAR": 0.00063549801, "MEAN_MOTION_DOT": 0.00025082, "MEAN_MOTION_DDOT": 0}, "tle": {"line1": "1 66393U 25257P   25341.00002315  .00025082  00000+0  63550-3 0  9992", "line2": "2 66393  53.1588 291.3902 0001688 100.1427  65.0577 15.39594210  5579"}}, "geometry": {"type": "Point", "coordinates": [-124.38378079508949, -47.003054780304325]}}, {"type": "Feature", "properties": {"norad_id": 66394, "name": "STARLINK-35672", "group": "last-30-days", "lat": -46.10368749379037, "lon": -122.05317361475933, "alt_km": 452.67340795607106, "timestamp": "2025-12-07T11:27:48.739034+00:00", "meta": {"OBJECT_NAME": "STARLINK-35672", "OBJECT_ID": "2025-257Q", "EPOCH": "2025-12-07T00:00:02.000160", "MEAN_MOTION": 15.3958678, "ECCENTRICITY": 0.00013109, "INCLINATION": 53.159, "RA_OF_ASC_NODE": 291.3853, "ARG_OF_PERICENTER": 86.7183, "MEAN_ANOMALY": 80.3416, "EPHEMERIS_TYPE": 0, "CLASSIFICATION_TYPE": "U", "NORAD_CAT_ID": 66394, "ELEMENT_SET_NO": 999, "REV_AT_EPOCH": 557, "BSTAR": 0.00063191429, "MEAN_MOTION_DOT": 0.00024932, "MEAN_MOTION_DDOT": 0}, "tle": {"line1": "1 66394U 25257Q   25341.00002315  .00024932  00000+0  63191-3 0  9997", "line2": "2 66394  53.1590 291.3853 0001310  86.7183  80.3416 15.39586780  5573"}}, "geometry": {"type": "Point", "coordinates": [-122.05317361475933, -46.10368749379037]}}, {"type": "Feature", "properties": {"norad_id": 66395, "name": "STARLINK-35681", "group": "last-30-days", "lat": -31.19590026827687, "lon": -97.91186306056314, "alt_km": 451.7772824306303, "timestamp": "2025-12-07T11:27:48.739045+00:00", "meta": {"OBJECT_NAME": "STARLINK-35681", "OBJECT_ID": "2025-257R", "EPOCH": "2025-12-07T00:00:02.000160", "MEAN_MOTION": 15.39584243, "ECCENTRICITY": 9.831e-05, "INCLINATION": 53.159, "RA_OF_ASC_NODE": 291.3391, "ARG_OF_PERICENTER": 111.0307, "MEAN_ANOMALY": 79.9626, "EPHEMERIS_TYPE": 0, "CLASSIFICATION_TYPE": "U", "NORAD_CAT_ID": 66395, "ELEMENT_SET_NO": 999, "REV_AT_EPOCH": 541, "BSTAR": 0.00064038983, "MEAN_MOTION_DOT": 0.0002527, "MEAN_MOTION_DDOT": 0}, "tle": {"line1": "1 66395U 25257R   25341.00002315  .00025270  00000+0  64039-3 0  9996", "line2": "2 66395  53.1590 291.3391 0000983 111.0307  79.9626 15.39584243  5418"}}, "geometry": {"type": "Point", "coordinates": [-97.91186306056314, -31.19590026827687]}}]}